name,formatted_address,lat,lng,website,phone_national,phone_international,types,place_id,resource_name,google_maps_uri,included_type,source_keyword
Move on cafe - มูฟออนคาเฟ่,CVG4+PFJ อุทยานแห่งชาติอ่าวมะนาว-เขาตันหยง ตำบล กะลุวอเหนือ อำเภอเมืองนราธิวาส นราธิวาส 96000 ประเทศไทย,6.4268354,101.8561417,https://www.facebook.com/share/18zTPVf7pp/,,,coffee_shop|cafe|food_store|point_of_interest|store|food|establishment,ChIJfYlAEwDxszERjYg9Mv-kG_c,places/ChIJfYlAEwDxszERjYg9Mv-kG_c,https://maps.google.com/?cid=17806006967705897101&g_mp=CiVnb29nbGUubWFwcy5wbGFjZXMudjEuUGxhY2VzLkdldFBsYWNlEAIYBCAA,,cafe
Bunga Raya cafe’ (ดุซงหญอ),223 ดุซงหญอ 1 ตำบล ดุซงญอ อำเภอ จะแนะ นราธิวาส 96220 ประเทศไทย,6.1730149,101.7015539,https://www.instagram.com/bungaraya_cafe_?igsh=MWg3ZXVtbnI1NWhtMQ==,093 778 8506,+66 93 778 8506,coffee_shop|cafe|food_store|point_of_interest|store|food|establishment,ChIJHaXUbQBztDER4Sj0VCjlyjQ,places/ChIJHaXUbQBztDER4Sj0VCjlyjQ,https://maps.google.com/?cid=3804104796654545121&g_mp=CiVnb29nbGUubWFwcy5wbGFjZXMudjEuUGxhY2VzLkdldFBsYWNlEAIYBCAA,,cafe
Siplet cafe,59 4 ถนนประชาวิวัฒน์ ตำบล สุไหงโก-ลก อำเภอ สุไหงโก-ลก นราธิวาส 96120 ประเทศไทย,6.0178914,101.9620772,,083 169 2669,+66 83 169 2669,coffee_shop|cafe|food_store|point_of_interest|store|food|establishment,ChIJUejJGgAZtDERhDmFdb7nNtg,places/ChIJUejJGgAZtDERhDmFdb7nNtg,https://maps.google.com/?cid=15579894766136277380&g_mp=CiVnb29nbGUubWFwcy5wbGFjZXMudjEuUGxhY2VzLkdldFBsYWNlEAIYBCAA,,cafe
Sunshine coffee Narathat beach,"Narathat beach, Tambon Bang Nak, Narathiwat, Chang Wat Narathiwat 96000 ประเทศไทย",6.4458758,101.8289284,https://www.facebook.com/Sunshine-St-101323045913790/,098 987 7792,+66 98 987 7792,cafe|point_of_interest|food|establishment,ChIJj3_ItH7vszERlKUQ8lBtFzU,places/ChIJj3_ItH7vszERlKUQ8lBtFzU,https://maps.google.com/?cid=3825646602900514196&g_mp=CiVnb29nbGUubWFwcy5wbGFjZXMudjEuUGxhY2VzLkdldFBsYWNlEAIYBCAA,,cafe
10th Coffee Brew Lab,217 ถนน ณ นคร ตำบล บางนาค อำเภอเมืองนราธิวาส นราธิวาส 96000 ประเทศไทย,6.4152533,101.812772,,084 180 5989,+66 84 180 5989,coffee_shop|cafe|food_store|point_of_interest|store|food|establishment,ChIJkwRxziPxszERW7V4CnVXnjY,places/ChIJkwRxziPxszERW7V4CnVXnjY,https://maps.google.com/?cid=3935679284566865243&g_mp=CiVnb29nbGUubWFwcy5wbGFjZXMudjEuUGxhY2VzLkdldFBsYWNlEAIYBCAA,,cafe
feb coffee house,398 ถ.ภูผาภัคดี ตำบล บางนาค นราธิวาส 96000 ประเทศไทย,6.4311137,101.8243354,,,,cafe|food|point_of_interest|establishment,ChIJSTTUrIPzszERg_wqTIXUS0o,places/ChIJSTTUrIPzszERg_wqTIXUS0o,https://maps.google.com/?cid=5353606251033590915&g_mp=CiVnb29nbGUubWFwcy5wbGFjZXMudjEuUGxhY2VzLkdldFBsYWNlEAIYBCAA,,cafe
Kak Dah Family Cafe & Restaurant,"Kampung Kubang Terap, 17000 Pasir Mas, Kelantan, มาเลเซีย",6.046860199999999,102.13841269999999,,010-577 3459,+60 10-577 3459,restaurant|point_of_interest|food|establishment,ChIJHVnxZO2mtjER2yQQkdfG5aI,places/ChIJHVnxZO2mtjER2yQQkdfG5aI,https://maps.google.com/?cid=11738006632965088475&g_mp=CiVnb29nbGUubWFwcy5wbGFjZXMudjEuUGxhY2VzLkdldFBsYWNlEAIYBCAA,,cafe
Idyllic house cafe,181 ต.โคกเคียน อ.เมือง นราธิวาส 96000 ประเทศไทย,6.5254855,101.7587641,,098 014 1146,+66 98 014 1146,coffee_shop|cafe|food_store|food|point_of_interest|store|establishment,ChIJ-T7UrvrrszERqkOy3X83_Vg,places/ChIJ-T7UrvrrszERqkOy3X83_Vg,https://maps.google.com/?cid=6412342466765276074&g_mp=CiVnb29nbGUubWFwcy5wbGFjZXMudjEuUGxhY2VzLkdldFBsYWNlEAIYBCAA,,cafe
OREN CORNER CAFE,"Pt 9076, kg bukit lakota, Kampung Lakota, 17600 Jeli, Kelantan, มาเลเซีย",5.734278199999999,101.86009209999999,https://www.facebook.com/orencorner.caffe,013-942 0922,+60 13-942 0922,restaurant|point_of_interest|food|establishment,ChIJn7esLcMxtDERolfLL5dBpq0,places/ChIJn7esLcMxtDERolfLL5dBpq0,https://maps.google.com/?cid=12512760732293224354&g_mp=CiVnb29nbGUubWFwcy5wbGFjZXMudjEuUGxhY2VzLkdldFBsYWNlEAIYBCAA,,cafe
ระบายศิลป์คาเฟ่,3 1 หลังวัดพระพุทธ ตำบล พร่อน อำเภอ ตากใบ นราธิวาส 96110 ประเทศไทย,6.231515,102.02836990000002,https://www.facebook.com/share/19cyHYpgFZ/?mibextid=wwXIfr,080 705 8572,+66 80 705 8572,cafe|point_of_interest|food|establishment,ChIJG1CqRPQBtDERFphntsytnmw,places/ChIJG1CqRPQBtDERFphntsytnmw,https://maps.google.com/?cid=7826884297161676822&g_mp=CiVnb29nbGUubWFwcy5wbGFjZXMudjEuUGxhY2VzLkdldFBsYWNlEAIYBCAA,,cafe
ALUMNI CAFE JELI,"PT 5454 (D, Kampung Gemang Lama, 17600 Jeli, Kelantan, มาเลเซีย",5.747273900000001,101.8624191,,016-827 2702,+60 16-827 2702,restaurant|food|point_of_interest|establishment,ChIJXx4mtdkxtDERORvaIndv410,places/ChIJXx4mtdkxtDERORvaIndv410,https://maps.google.com/?cid=6765373622717127481&g_mp=CiVnb29nbGUubWFwcy5wbGFjZXMudjEuUGxhY2VzLkdldFBsYWNlEAIYBCAA,,cafe
Thecossa1996's_cafe,"2X57+MF3 289 4057, ตำบล สุไหงโก-ลก อำเภอ สุไหงโก-ลก นราธิวาส 96120 ประเทศไทย",6.0092003,101.9637549,,,,coffee_shop|cafe|food_store|food|point_of_interest|store|establishment,ChIJpRrxCAgZtDERq0bbulL8UsM,places/ChIJpRrxCAgZtDERq0bbulL8UsM,https://maps.google.com/?cid=14074589217738671787&g_mp=CiVnb29nbGUubWFwcy5wbGFjZXMudjEuUGxhY2VzLkdldFBsYWNlEAIYBCAA,,cafe
มา-หา-ที mahatee,128/24 ม.6 ตำบล ปาเสมัส อำเภอ สุไหงโก-ลก นราธิวาส 96120 ประเทศไทย,6.0287048,101.9534503,,099 369 5449,+66 99 369 5449,bakery|wholesaler|restaurant|cafe|food_store|food|point_of_interest|store|establishment,ChIJBRvukmIdtDERTlnTbKeClRw,places/ChIJBRvukmIdtDERTlnTbKeClRw,https://maps.google.com/?cid=2059696060188809550&g_mp=CiVnb29nbGUubWFwcy5wbGFjZXMudjEuUGxhY2VzLkdldFBsYWNlEAIYBCAA,,cafe
Mubarok cafe',5M9X+Q83 สามแยกสวนพระยา ตำบล ดุซงญอ อำเภอ จะแนะ นราธิวาส 96220 ประเทศไทย,6.1693881,101.6982853,,090 178 2290,+66 90 178 2290,cafe|point_of_interest|food|establishment,ChIJSdmJgQNztDERemeA3x_1zLQ,places/ChIJSdmJgQNztDERemeA3x_1zLQ,https://maps.google.com/?cid=13028057339318527866&g_mp=CiVnb29nbGUubWFwcy5wbGFjZXMudjEuUGxhY2VzLkdldFBsYWNlEAIYBCAA,,cafe
D'Rofa Cafe Mee Udang Galah,"Jalan Kota Bharu - Pengkalan Kubor, 16210 Tumpat, Kelantan, มาเลเซีย",6.1470614,102.16294579999999,https://m.facebook.com/maggisotonggergasi/posts/469052583669117,011-2572 0084,+60 11-2572 0084,cafe|food|point_of_interest|establishment,ChIJ5QAUzCyptjERXWnDzJ_xu4s,places/ChIJ5QAUzCyptjERXWnDzJ_xu4s,https://maps.google.com/?cid=10068907060554328413&g_mp=CiVnb29nbGUubWFwcy5wbGFjZXMudjEuUGxhY2VzLkdldFBsYWNlEAIYBCAA,,cafe
TUBA CAFE,4193 ตำบล สากอ อำเภอ สุไหงปาดี นราธิวาส 96140 ประเทศไทย,6.0138777,101.84967739999999,,,,restaurant|food|point_of_interest|establishment,ChIJRTsadtYXtDER5Fdmv6Vis1k,places/ChIJRTsadtYXtDER5Fdmv6Vis1k,https://maps.google.com/?cid=6463618354227075044&g_mp=CiVnb29nbGUubWFwcy5wbGFjZXMudjEuUGxhY2VzLkdldFBsYWNlEAIYBCAA,,cafe
Ciao Coffee & Co.,144 ถนน สุริยะประดิษฐ์ ตำบล บางนาค อำเภอเมืองนราธิวาส นราธิวาส 96000 ประเทศไทย,6.4167105,101.8118734,https://www.facebook.com/ciaocoffeeandco/,094 325 8688,+66 94 325 8688,cafe|point_of_interest|food|establishment,ChIJkwfgv0TxszER6HTr0Ig2GSY,places/ChIJkwfgv0TxszER6HTr0Ig2GSY,https://maps.google.com/?cid=2745285409107571944&g_mp=CiVnb29nbGUubWFwcy5wbGFjZXMudjEuUGxhY2VzLkdldFBsYWNlEAIYBCAA,,cafe
Coffee Cha Cafe,"FMM4+PFC, Lubosawo, ตำบล ลุโบะสาวอ อำเภอ บาเจาะ นราธิวาส 96170 ประเทศไทย",6.4843115,101.6563942,,,,coffee_shop|cafe|food_store|food|point_of_interest|store|establishment,ChIJt6Bh4KaTszER78ge1Kxdq9I,places/ChIJt6Bh4KaTszER78ge1Kxdq9I,https://maps.google.com/?cid=15180329965856934127&g_mp=CiVnb29nbGUubWFwcy5wbGFjZXMudjEuUGxhY2VzLkdldFBsYWNlEAIYBCAA,,cafe
Gmie Cafe,"7178, Jln Pasir Mas - Pohon Tanjung, Kampung Dangai, 17000 Pasir Mas, Kelantan, มาเลเซีย",6.0506449,102.1328351,,,,cafe|food|point_of_interest|establishment,ChIJwUW3DvGmtjERjA0xC1aSZRU,places/ChIJwUW3DvGmtjERjA0xC1aSZRU,https://maps.google.com/?cid=1541799345696869772&g_mp=CiVnb29nbGUubWFwcy5wbGFjZXMudjEuUGxhY2VzLkdldFBsYWNlEAIYBCAA,,cafe
Menara Cafe and Resort,80 ถ.นาอีม ตำบล โคกเคียน อำเภอเมืองนราธิวาส นราธิวาส 96000 ประเทศไทย,6.533862999999999,101.7529541,,,,hotel|cafe|lodging|restaurant|point_of_interest|food|establishment,ChIJ_WZSPbnrszEREGo2Idy90yQ,places/ChIJ_WZSPbnrszEREGo2Idy90yQ,https://maps.google.com/?cid=2653673358599023120&g_mp=CiVnb29nbGUubWFwcy5wbGFjZXMudjEuUGxhY2VzLkdldFBsYWNlEAIYBCAA,,cafe
