[
  {"id": "1001", "province_id": "10", "name_th": "พระนคร", "name_en": "Phra Nakhon"},
  {"id": "1002", "province_id": "10", "name_th": "ดุสิต", "name_en": "Dusit"},
  {"id": "1003", "province_id": "10", "name_th": "หนองจอก", "name_en": "Nong Chok"},
  {"id": "1004", "province_id": "10", "name_th": "บางรัก", "name_en": "Bang Rak"},
  {"id": "1005", "province_id": "10", "name_th": "บางเขน", "name_en": "Bang Khen"},
  {"id": "1006", "province_id": "10", "name_th": "บางกะปิ", "name_en": "Bang Kapi"},
  {"id": "1007", "province_id": "10", "name_th": "ปทุมวัน", "name_en": "Pathum Wan"},
  {"id": "1008", "province_id": "10", "name_th": "ป้อมปราบศัตรูพ่าย", "name_en": "Pom Prap Sattru Phai"},
  {"id": "1009", "province_id": "10", "name_th": "พระโขนง", "name_en": "Phra Khanong"},
  {"id": "1010", "province_id": "10", "name_th": "มีนบุรี", "name_en": "Min Buri"},
  {"id": "2001", "province_id": "20", "name_th": "เมืองชลบุรี", "name_en": "Mueang Chonburi"},
  {"id": "2002", "province_id": "20", "name_th": "บางละมุง", "name_en": "Bang Lamung"},
  {"id": "2003", "province_id": "20", "name_th": "ศรีราชา", "name_en": "Si Racha"},
  {"id": "2004", "province_id": "20", "name_th": "เกาะสีชัง", "name_en": "Ko Sichang"},
  {"id": "2005", "province_id": "20", "name_th": "สัตหีบ", "name_en": "Sattahip"},
  {"id": "4901", "province_id": "49", "name_th": "เมืองเชียงใหม่", "name_en": "Mueang Chiang Mai"},
  {"id": "4902", "province_id": "49", "name_th": "จอมทอง", "name_en": "Chom Thong"},
  {"id": "4903", "province_id": "49", "name_th": "แม่แจ่ม", "name_en": "Mae Chaem"},
  {"id": "4904", "province_id": "49", "name_th": "เชียงดาว", "name_en": "Chiang Dao"},
  {"id": "4905", "province_id": "49", "name_th": "ดอยสะเก็ด", "name_en": "Doi Saket"},
  {"id": "4906", "province_id": "49", "name_th": "แม่ริม", "name_en": "Mae Rim"},
  {"id": "4907", "province_id": "49", "name_th": "สะเมิง", "name_en": "Samoeng"},
  {"id": "4908", "province_id": "49", "name_th": "แม่แตง", "name_en": "Mae Taeng"},
  {"id": "4909", "province_id": "49", "name_th": "แม่อาย", "name_en": "Mae Ai"},
  {"id": "4910", "province_id": "49", "name_th": "ฝาง", "name_en": "Fang"},
  {"id": "9001", "province_id": "90", "name_th": "หาดใหญ่", "name_en": "Hat Yai"},
  {"id": "9002", "province_id": "90", "name_th": "เมืองสงขลา", "name_en": "Mueang Songkhla"},
  {"id": "9003", "province_id": "90", "name_th": "สะเดา", "name_en": "Sadao"},
  {"id": "9004", "province_id": "90", "name_th": "คลองหอยโข่ง", "name_en": "Khlong Hoi Khong"},
  {"id": "9005", "province_id": "90", "name_th": "นาทวี", "name_en": "Na Thawi"},
  {"id": "9006", "province_id": "90", "name_th": "เทพา", "name_en": "Thepha"},
  {"id": "9007", "province_id": "90", "name_th": "สะบ้าย้อย", "name_en": "Saba Yoi"},
  {"id": "9008", "province_id": "90", "name_th": "รัตภูมิ", "name_en": "Rattaphum"},
  {"id": "9009", "province_id": "90", "name_th": "จะนะ", "name_en": "Chana"},
  {"id": "9010", "province_id": "90", "name_th": "นาหม่อม", "name_en": "Na Mom"},
  {"id": "8301", "province_id": "83", "name_th": "เมืองภูเก็ต", "name_en": "Mueang Phuket"},
  {"id": "8302", "province_id": "83", "name_th": "กะทู้", "name_en": "Kathu"},
  {"id": "8303", "province_id": "83", "name_th": "ถลาง", "name_en": "Thalang"}
]