[
  {
    "id": "100101", "amphoe_id": "1001", "name_th": "พระบรมมหาราชวัง", "name_en": "Phra Borom Maha Ratchawang",
    "center": {"lat": 13.7540, "lng": 100.4921},
    "bbox": [13.7520, 100.4900, 13.7560, 100.4942]
  },
  {
    "id": "100102", "amphoe_id": "1001", "name_th": "วัดโบสถ์", "name_en": "Wat Bowonniwet",
    "center": {"lat": 13.7614, "lng": 100.5014},
    "bbox": [13.7594, 100.4994, 13.7634, 100.5034]
  },
  {
    "id": "100103", "amphoe_id": "1001", "name_th": "สำราญราษฎร์", "name_en": "Samran Rat",
    "center": {"lat": 13.7450, "lng": 100.5010},
    "bbox": [13.7430, 100.4990, 13.7470, 100.5030]
  },
  {
    "id": "100401", "amphoe_id": "1004", "name_th": "มหาพฤฒาราม", "name_en": "Maha Phruettharam",
    "center": {"lat": 13.7195, "lng": 100.5195},
    "bbox": [13.7175, 100.5175, 13.7215, 100.5215]
  },
  {
    "id": "100402", "amphoe_id": "1004", "name_th": "สีลม", "name_en": "Silom",
    "center": {"lat": 13.7239, "lng": 100.5332},
    "bbox": [13.7219, 100.5312, 13.7259, 100.5352]
  },
  {
    "id": "100701", "amphoe_id": "1007", "name_th": "วังใหม่", "name_en": "Wang Mai",
    "center": {"lat": 13.7463, "lng": 100.5351},
    "bbox": [13.7443, 100.5331, 13.7483, 100.5371]
  },
  {
    "id": "100702", "amphoe_id": "1007", "name_th": "ลุมพินี", "name_en": "Lumpini",
    "center": {"lat": 13.7367, "lng": 100.5404},
    "bbox": [13.7347, 100.5384, 13.7387, 100.5424]
  },
  {
    "id": "200101", "amphoe_id": "2001", "name_th": "เสม็ด", "name_en": "Samet",
    "center": {"lat": 13.3617, "lng": 100.9843},
    "bbox": [13.3597, 100.9823, 13.3637, 100.9863]
  },
  {
    "id": "200102", "amphoe_id": "2001", "name_th": "เชิงเนิน", "name_en": "Choeng Noen",
    "center": {"lat": 13.3844, "lng": 100.9758},
    "bbox": [13.3824, 100.9738, 13.3864, 100.9778]
  },
  {
    "id": "200201", "amphoe_id": "2002", "name_th": "หนองปรือ", "name_en": "Nong Prue",
    "center": {"lat": 12.9275, "lng": 100.8824},
    "bbox": [12.9255, 100.8804, 12.9295, 100.8844]
  },
  {
    "id": "200202", "amphoe_id": "2002", "name_th": "พัทยา", "name_en": "Pattaya",
    "center": {"lat": 12.9276, "lng": 100.8776},
    "bbox": [12.9256, 100.8756, 12.9296, 100.8796]
  },
  {
    "id": "490101", "amphoe_id": "4901", "name_th": "ศรีภูมิ", "name_en": "Si Phum",
    "center": {"lat": 18.7904, "lng": 98.9847},
    "bbox": [18.7884, 98.9827, 18.7924, 98.9867]
  },
  {
    "id": "490102", "amphoe_id": "4901", "name_th": "พระสิงห์", "name_en": "Phra Sing",
    "center": {"lat": 18.7871, "lng": 98.9830},
    "bbox": [18.7851, 98.9810, 18.7891, 98.9850]
  },
  {
    "id": "490103", "amphoe_id": "4901", "name_th": "หายยา", "name_en": "Haiya",
    "center": {"lat": 18.8044, "lng": 99.0151},
    "bbox": [18.8024, 99.0131, 18.8064, 99.0171]
  },
  {
    "id": "490104", "amphoe_id": "4901", "name_th": "ช้างม่อย", "name_en": "Chang Moi",
    "center": {"lat": 18.7964, "lng": 98.9967},
    "bbox": [18.7944, 98.9947, 18.7984, 98.9987]
  },
  {
    "id": "900101", "amphoe_id": "9001", "name_th": "หาดใหญ่", "name_en": "Hat Yai",
    "center": {"lat": 7.0084, "lng": 100.4747},
    "bbox": [7.0000, 100.4200, 7.0400, 100.5200]
  },
  {
    "id": "900102", "amphoe_id": "9001", "name_th": "คอหงส์", "name_en": "Kho Hong",
    "center": {"lat": 6.9967, "lng": 100.4631},
    "bbox": [6.9947, 100.4611, 6.9987, 100.4651]
  },
  {
    "id": "900103", "amphoe_id": "9001", "name_th": "คูหาสวรรค์", "name_en": "Khu Ha Sawan",
    "center": {"lat": 7.0156, "lng": 100.4889},
    "bbox": [7.0136, 100.4869, 7.0176, 100.4909]
  },
  {
    "id": "900201", "amphoe_id": "9002", "name_th": "บ่อยาง", "name_en": "Bo Yang",
    "center": {"lat": 7.2089, "lng": 100.5955},
    "bbox": [7.2069, 100.5935, 7.2109, 100.5975]
  },
  {
    "id": "900202", "amphoe_id": "9002", "name_th": "เกาะยอ", "name_en": "Ko Yo",
    "center": {"lat": 7.1467, "lng": 100.5644},
    "bbox": [7.1447, 100.5624, 7.1487, 100.5664]
  },
  {
    "id": "830101", "amphoe_id": "8301", "name_th": "ตลาดใหญ่", "name_en": "Talat Yai",
    "center": {"lat": 7.8804, "lng": 98.3923},
    "bbox": [7.8784, 98.3903, 7.8824, 98.3943]
  },
  {
    "id": "830102", "amphoe_id": "8301", "name_th": "ตลาดเหนือ", "name_en": "Talat Nuea",
    "center": {"lat": 7.8867, "lng": 98.3933},
    "bbox": [7.8847, 98.3913, 7.8887, 98.3953]
  },
  {
    "id": "830201", "amphoe_id": "8302", "name_th": "กะทู้", "name_en": "Kathu",
    "center": {"lat": 7.9267, "lng": 98.3344},
    "bbox": [7.9247, 98.3324, 7.9287, 98.3364]
  },
  {
    "id": "830202", "amphoe_id": "8302", "name_th": "ป่าตอง", "name_en": "Patong",
    "center": {"lat": 7.8967, "lng": 98.2967},
    "bbox": [7.8947, 98.2947, 7.8987, 98.2987]
  }
]